{
  "type": "FeatureCollection",
  "features": [
    {
      "type": "Feature",
      "properties": {
        "norad_id": 36278,
        "name": "FENGYUN 1C DEB",
        "group": "fengyun-1c-debris",
        "lat": -22.35979244589967,
        "lon": 77.29667417311983,
        "alt_km": 846.4703502084658,
        "timestamp": "2025-12-08T21:31:04.956067+00:00",
        "meta_object_name": "FENGYUN 1C DEB",
        "meta_object_id": "1999-025DXF",
        "meta_epoch": "2025-12-04T01:21:08.443872",
        "meta_mean_motion": 14.17353569,
        "meta_eccentricity": 0.00613363,
        "meta_inclination": 99.1236,
        "meta_ra_of_asc_node": 256.1206,
        "meta_arg_of_pericenter": 315.5831,
        "meta_mean_anomaly": 44.0433,
        "meta_ephemeris_type": 0,
        "meta_classification_type": "U",
        "meta_norad_cat_id": 36278,
        "meta_element_set_no": 999,
        "meta_rev_at_epoch": 93353,
        "meta_bstar": 0.0008477729,
        "meta_mean_motion_dot": 1.7e-05,
        "meta_mean_motion_ddot": 0,
        "tle_line1": "1 36278U 99025DXF 25338.05634773  .00001700  00000+0  84777-3 0  9990",
        "tle_line2": "2 36278  99.1236 256.1206 0061336 315.5831  44.0433 14.17353569933530"
      },
      "geometry": {
        "type": "Point",
        "coordinates": [
          77.29667417311983,
          -22.35979244589967
        ]
      }
    },
    {
      "type": "Feature",
      "properties": {
        "norad_id": 36279,
        "name": "FENGYUN 1C DEB",
        "group": "fengyun-1c-debris",
        "lat": -79.53085640884304,
        "lon": 86.45621810248416,
        "alt_km": 893.9260516467311,
        "timestamp": "2025-12-08T21:31:04.956077+00:00",
        "meta_object_name": "FENGYUN 1C DEB",
        "meta_object_id": "1999-025DXG",
        "meta_epoch": "2025-12-08T04:59:58.612992",
        "meta_mean_motion": 14.147242,
        "meta_eccentricity": 0.00630677,
        "meta_inclination": 98.5605,
        "meta_ra_of_asc_node": 320.3989,
        "meta_arg_of_pericenter": 68.1387,
        "meta_mean_anomaly": 292.6479,
        "meta_ephemeris_type": 0,
        "meta_classification_type": "U",
        "meta_norad_cat_id": 36279,
        "meta_element_set_no": 999,
        "meta_rev_at_epoch": 88975,
        "meta_bstar": 0.00024838235,
        "meta_mean_motion_dot": 4.46e-06,
        "meta_mean_motion_ddot": 0,
        "tle_line1": "1 36279U 99025DXG 25342.20831728  .00000446  00000+0  24838-3 0  9990",
        "tle_line2": "2 36279  98.5605 320.3989 0063067  68.1387 292.6479 14.14724200889752"
      },
      "geometry": {
        "type": "Point",
        "coordinates": [
          86.45621810248416,
          -79.53085640884304
        ]
      }
    },
    {
      "type": "Feature",
      "properties": {
        "norad_id": 36280,
        "name": "FENGYUN 1C DEB",
        "group": "fengyun-1c-debris",
        "lat": 10.416914879134408,
        "lon": 10.363810760528382,
        "alt_km": 842.601813654991,
        "timestamp": "2025-12-08T21:31:04.956087+00:00",
        "meta_object_name": "FENGYUN 1C DEB",
        "meta_object_id": "1999-025DXH",
        "meta_epoch": "2025-12-08T08:09:18.181728",
        "meta_mean_motion": 14.09718821,
        "meta_eccentricity": 0.0063408,
        "meta_inclination": 98.7669,
        "meta_ra_of_asc_node": 11.4472,
        "meta_arg_of_pericenter": 77.8765,
        "meta_mean_anomaly": 349.3011,
        "meta_ephemeris_type": 0,
        "meta_classification_type": "U",
        "meta_norad_cat_id": 36280,
        "meta_element_set_no": 999,
        "meta_rev_at_epoch": 86292,
        "meta_bstar": 0.0013588,
        "meta_mean_motion_dot": 2.387e-05,
        "meta_mean_motion_ddot": 0,
        "tle_line1": "1 36280U 99025DXH 25342.33979377  .00002387  00000+0  13588-2 0  9994",
        "tle_line2": "2 36280  98.7669  11.4472 0063408  77.8765 349.3011 14.09718821862925"
      },
      "geometry": {
        "type": "Point",
        "coordinates": [
          10.363810760528382,
          10.416914879134408
        ]
      }
    },
    {
      "type": "Feature",
      "properties": {
        "norad_id": 36281,
        "name": "FENGYUN 1C DEB",
        "group": "fengyun-1c-debris",
        "lat": -78.31206713452563,
        "lon": -42.91289630930318,
        "alt_km": 1237.7926708718815,
        "timestamp": "2025-12-08T21:31:04.956097+00:00",
        "meta_object_name": "FENGYUN 1C DEB",
        "meta_object_id": "1999-025DXJ",
        "meta_epoch": "2025-12-08T00:45:39.592800",
        "meta_mean_motion": 13.60211286,
        "meta_eccentricity": 0.02894974,
        "meta_inclination": 99.2586,
        "meta_ra_of_asc_node": 264.2243,
        "meta_arg_of_pericenter": 123.04,
        "meta_mean_anomaly": 239.8907,
        "meta_ephemeris_type": 0,
        "meta_classification_type": "U",
        "meta_norad_cat_id": 36281,
        "meta_element_set_no": 999,
        "meta_rev_at_epoch": 84453,
        "meta_bstar": 0.0034342355,
        "meta_mean_motion_dot": 3.354e-05,
        "meta_mean_motion_ddot": 0,
        "tle_line1": "1 36281U 99025DXJ 25342.03170825  .00003354  00000+0  34342-2 0  9999",
        "tle_line2": "2 36281  99.2586 264.2243 0289497 123.0400 239.8907 13.60211286844535"
      },
      "geometry": {
        "type": "Point",
        "coordinates": [
          -42.91289630930318,
          -78.31206713452563
        ]
      }
    },
    {
      "type": "Feature",
      "properties": {
        "norad_id": 36283,
        "name": "FENGYUN 1C DEB",
        "group": "fengyun-1c-debris",
        "lat": -65.51181581606104,
        "lon": 105.76587112503395,
        "alt_km": 604.1393790646107,
        "timestamp": "2025-12-08T21:31:04.956107+00:00",
        "meta_object_name": "FENGYUN 1C DEB",
        "meta_object_id": "1999-025DXL",
        "meta_epoch": "2025-11-28T03:35:45.168576",
        "meta_mean_motion": 15.05092252,
        "meta_eccentricity": 0.00695379,
        "meta_inclination": 99.4205,
        "meta_ra_of_asc_node": 294.0447,
        "meta_arg_of_pericenter": 95.6406,
        "meta_mean_anomaly": 265.275,
        "meta_ephemeris_type": 0,
        "meta_classification_type": "U",
        "meta_norad_cat_id": 36283,
        "meta_element_set_no": 999,
        "meta_rev_at_epoch": 66446,
        "meta_bstar": 0.0018499593,
        "meta_mean_motion_dot": 0.00027782,
        "meta_mean_motion_ddot": 0,
        "tle_line1": "1 36283U 99025DXL 25332.14982834  .00027782  00000+0  18500-2 0  9992",
        "tle_line2": "2 36283  99.4205 294.0447 0069537  95.6406 265.2750 15.05092252664467"
      },
      "geometry": {
        "type": "Point",
        "coordinates": [
          105.76587112503395,
          -65.51181581606104
        ]
      }
    },
    {
      "type": "Feature",
      "properties": {
        "norad_id": 36644,
        "name": "FENGYUN 1C DEB",
        "group": "fengyun-1c-debris",
        "lat": 64.88730870217228,
        "lon": -39.538227296239754,
        "alt_km": 977.4449005441729,
        "timestamp": "2025-12-08T21:31:04.956117+00:00",
        "meta_object_name": "FENGYUN 1C DEB",
        "meta_object_id": "1999-025DXN",
        "meta_epoch": "2025-12-06T15:56:19.275936",
        "meta_mean_motion": 13.59167664,
        "meta_eccentricity": 0.02857814,
        "meta_inclination": 98.4234,
        "meta_ra_of_asc_node": 120.1104,
        "meta_arg_of_pericenter": 196.1478,
        "meta_mean_anomaly": 163.0413,
        "meta_ephemeris_type": 0,
        "meta_classification_type": "U",
        "meta_norad_cat_id": 36644,
        "meta_element_set_no": 999,
        "meta_rev_at_epoch": 61485,
        "meta_bstar": 0.0026178612,
        "meta_mean_motion_dot": 2.485e-05,
        "meta_mean_motion_ddot": 0,
        "tle_line1": "1 36644U 99025DXN 25340.66411199  .00002485  00000+0  26179-2 0  9994",
        "tle_line2": "2 36644  98.4234 120.1104 0285781 196.1478 163.0413 13.59167664614851"
      },
      "geometry": {
        "type": "Point",
        "coordinates": [
          -39.538227296239754,
          64.88730870217228
        ]
      }
    },
    {
      "type": "Feature",
      "properties": {
        "norad_id": 36647,
        "name": "FENGYUN 1C DEB",
        "group": "fengyun-1c-debris",
        "lat": -43.63321049703196,
        "lon": -60.980592085639906,
        "alt_km": 927.2550161906001,
        "timestamp": "2025-12-08T21:31:04.956127+00:00",
        "meta_object_name": "FENGYUN 1C DEB",
        "meta_object_id": "1999-025DXR",
        "meta_epoch": "2025-12-07T04:39:02.273184",
        "meta_mean_motion": 13.88760549,
        "meta_eccentricity": 0.02389523,
        "meta_inclination": 96.1221,
        "meta_ra_of_asc_node": 123.7707,
        "meta_arg_of_pericenter": 316.1399,
        "meta_mean_anomaly": 42.1009,
        "meta_ephemeris_type": 0,
        "meta_classification_type": "U",
        "meta_norad_cat_id": 36647,
        "meta_element_set_no": 999,
        "meta_rev_at_epoch": 30335,
        "meta_bstar": 0.0036282944,
        "meta_mean_motion_dot": 5.477e-05,
        "meta_mean_motion_ddot": 0,
        "tle_line1": "1 36647U 99025DXR 25341.19377631  .00005477  00000+0  36283-2 0  9999",
        "tle_line2": "2 36647  96.1221 123.7707 0238952 316.1399  42.1009 13.88760549303358"
      },
      "geometry": {
        "type": "Point",
        "coordinates": [
          -60.980592085639906,
          -43.63321049703196
        ]
      }
    }
  ]
}